[{"OBJECT_NAME":"TEIKYOSAT-4 (OORURI)","OBJECT_ID":"2021-102B","EPOCH":"2026-03-09T16:12:29.535840","MEAN_MOTION":15.09119208,"ECCENTRICITY":0.00103447,"INCLINATION":97.3797,"RA_OF_ASC_NODE":101.9931,"ARG_OF_PERICENTER":276.5421,"MEAN_ANOMALY":83.463,"EPHEMERIS_TYPE":0,"CLASSIFICATION_TYPE":"U","NORAD_CAT_ID":49396,"ELEMENT_SET_NO":999,"REV_AT_EPOCH":23771,"BSTAR":0.00015739844,"MEAN_MOTION_DOT":2.438e-5,"MEAN_MOTION_DDOT":0},{"OBJECT_NAME":"STARLINK-3450","OBJECT_ID":"2022-016W","EPOCH":"2026-03-09T22:00:36.922464","MEAN_MOTION":15.08842875,"ECCENTRICITY":0.00015667,"INCLINATION":53.2194,"RA_OF_ASC_NODE":318.099,"ARG_OF_PERICENTER":102.9267,"MEAN_ANOMALY":257.19,"EPHEMERIS_TYPE":0,"CLASSIFICATION_TYPE":"U","NORAD_CAT_ID":51734,"ELEMENT_SET_NO":999,"REV_AT_EPOCH":22359,"BSTAR":-3.4221182e-5,"MEAN_MOTION_DOT":-8.33e-6,"MEAN_MOTION_DDOT":0}]
